CCSDS_OMM_VERS = 2.0
CREATION_DATE  = 
ORIGINATOR     = 

OBJECT_NAME    = DELTA 2 R/B(1)
OBJECT_ID      = 1990-008B
CENTER_NAME    = EARTH
REF_FRAME      = TEME
TIME_SYSTEM    = UTC
MEAN_ELEMENT_THEORY = SGP/SGP4

EPOCH          = 2026-01-24T14:12:53.815392
MEAN_MOTION    = 15.49832570
ECCENTRICITY   = .0100403
INCLINATION    = 35.6054
RA_OF_ASC_NODE = 102.9148
ARG_OF_PERICENTER = 210.3563
MEAN_ANOMALY   = 149.1329

EPHEMERIS_TYPE = 0
CLASSIFICATION_TYPE = U
NORAD_CAT_ID   = 20453
ELEMENT_SET_NO = 999
REV_AT_EPOCH   = 91927
BSTAR          = .94977274E-3
MEAN_MOTION_DOT = .67819E-3
MEAN_MOTION_DDOT = 0

CCSDS_OMM_VERS = 2.0
CREATION_DATE  = 
ORIGINATOR     = 

OBJECT_NAME    = COSMOS 2058
OBJECT_ID      = 1990-010A
CENTER_NAME    = EARTH
REF_FRAME      = TEME
TIME_SYSTEM    = UTC
MEAN_ELEMENT_THEORY = SGP/SGP4

EPOCH          = 2026-01-25T03:25:42.941568
MEAN_MOTION    = 15.10915063
ECCENTRICITY   = .00115018
INCLINATION    = 82.4651
RA_OF_ASC_NODE = 90.3269
ARG_OF_PERICENTER = 119.2697
MEAN_ANOMALY   = 240.9685

EPHEMERIS_TYPE = 0
CLASSIFICATION_TYPE = U
NORAD_CAT_ID   = 20465
ELEMENT_SET_NO = 999
REV_AT_EPOCH   = 93566
BSTAR          = .34009502E-3
MEAN_MOTION_DOT = .5701E-4
MEAN_MOTION_DDOT = 0

CCSDS_OMM_VERS = 2.0
CREATION_DATE  = 
ORIGINATOR     = 

OBJECT_NAME    = SL-14 R/B
OBJECT_ID      = 1990-010B
CENTER_NAME    = EARTH
REF_FRAME      = TEME
TIME_SYSTEM    = UTC
MEAN_ELEMENT_THEORY = SGP/SGP4

EPOCH          = 2026-01-25T01:09:41.799744
MEAN_MOTION    = 14.83524394
ECCENTRICITY   = .00214176
INCLINATION    = 82.5045
RA_OF_ASC_NODE = 308.3776
ARG_OF_PERICENTER = 84.0479
MEAN_ANOMALY   = 276.3177

EPHEMERIS_TYPE = 0
CLASSIFICATION_TYPE = U
NORAD_CAT_ID   = 20466
ELEMENT_SET_NO = 999
REV_AT_EPOCH   = 92201
BSTAR          = .10548141E-3
MEAN_MOTION_DOT = .895E-5
MEAN_MOTION_DDOT = 0

CCSDS_OMM_VERS = 2.0
CREATION_DATE  = 
ORIGINATOR     = 

OBJECT_NAME    = SL-14 R/B
OBJECT_ID      = 1990-018B
CENTER_NAME    = EARTH
REF_FRAME      = TEME
TIME_SYSTEM    = UTC
MEAN_ELEMENT_THEORY = SGP/SGP4

EPOCH          = 2026-01-25T03:49:07.691520
MEAN_MOTION    = 14.82098956
ECCENTRICITY   = .00151324
INCLINATION    = 82.5200
RA_OF_ASC_NODE = 263.7859
ARG_OF_PERICENTER = 232.4596
MEAN_ANOMALY   = 127.5244

EPHEMERIS_TYPE = 0
CLASSIFICATION_TYPE = U
NORAD_CAT_ID   = 20511
ELEMENT_SET_NO = 999
REV_AT_EPOCH   = 91613
BSTAR          = .84182273E-4
MEAN_MOTION_DOT = .693E-5
MEAN_MOTION_DDOT = 0

CCSDS_OMM_VERS = 2.0
CREATION_DATE  = 
ORIGINATOR     = 

OBJECT_NAME    = HST
OBJECT_ID      = 1990-037B
CENTER_NAME    = EARTH
REF_FRAME      = TEME
TIME_SYSTEM    = UTC
MEAN_ELEMENT_THEORY = SGP/SGP4

EPOCH          = 2026-01-25T00:27:36.560160
MEAN_MOTION    = 15.28738228
ECCENTRICITY   = .00017137
INCLINATION    = 28.4682
RA_OF_ASC_NODE = 337.7521
ARG_OF_PERICENTER = 353.5468
MEAN_ANOMALY   = 6.5105

EPHEMERIS_TYPE = 0
CLASSIFICATION_TYPE = U
NORAD_CAT_ID   = 20580
ELEMENT_SET_NO = 999
REV_AT_EPOCH   = 76662
BSTAR          = .39684656E-3
MEAN_MOTION_DOT = .11649E-3
MEAN_MOTION_DDOT = 0

CCSDS_OMM_VERS = 2.0
CREATION_DATE  = 
ORIGINATOR     = 

OBJECT_NAME    = SL-16 R/B
OBJECT_ID      = 1990-046B
CENTER_NAME    = EARTH
REF_FRAME      = TEME
TIME_SYSTEM    = UTC
MEAN_ELEMENT_THEORY = SGP/SGP4

EPOCH          = 2026-01-25T07:01:00.136416
MEAN_MOTION    = 14.15007352
ECCENTRICITY   = .00140529
INCLINATION    = 70.9993
RA_OF_ASC_NODE = 29.0538
ARG_OF_PERICENTER = 359.8552
MEAN_ANOMALY   = 0.2564

EPHEMERIS_TYPE = 0
CLASSIFICATION_TYPE = U
NORAD_CAT_ID   = 20625
ELEMENT_SET_NO = 999
REV_AT_EPOCH   = 84225
BSTAR          = -.74271357E-4
MEAN_MOTION_DOT = -.192E-5
MEAN_MOTION_DDOT = 0

CCSDS_OMM_VERS = 2.0
CREATION_DATE  = 
ORIGINATOR     = 

OBJECT_NAME    = COSMOS 2084
OBJECT_ID      = 1990-055A
CENTER_NAME    = EARTH
REF_FRAME      = TEME
TIME_SYSTEM    = UTC
MEAN_ELEMENT_THEORY = SGP/SGP4

EPOCH          = 2026-01-24T16:26:10.570848
MEAN_MOTION    = 15.05344312
ECCENTRICITY   = .00243486
INCLINATION    = 62.7903
RA_OF_ASC_NODE = 125.6307
ARG_OF_PERICENTER = 181.3149
MEAN_ANOMALY   = 178.7892

EPHEMERIS_TYPE = 0
CLASSIFICATION_TYPE = U
NORAD_CAT_ID   = 20663
ELEMENT_SET_NO = 999
REV_AT_EPOCH   = 92969
BSTAR          = .34460116E-3
MEAN_MOTION_DOT = .479E-4
MEAN_MOTION_DDOT = 0

CCSDS_OMM_VERS = 2.0
CREATION_DATE  = 
ORIGINATOR     = 

OBJECT_NAME    = SL-6 R/B(2)
OBJECT_ID      = 1990-055D
CENTER_NAME    = EARTH
REF_FRAME      = TEME
TIME_SYSTEM    = UTC
MEAN_ELEMENT_THEORY = SGP/SGP4

EPOCH          = 2026-01-25T06:33:29.673504
MEAN_MOTION    = 15.03333802
ECCENTRICITY   = .00185831
INCLINATION    = 62.7841
RA_OF_ASC_NODE = 41.4667
ARG_OF_PERICENTER = 333.5118
MEAN_ANOMALY   = 26.5029

EPHEMERIS_TYPE = 0
CLASSIFICATION_TYPE = U
NORAD_CAT_ID   = 20666
ELEMENT_SET_NO = 999
REV_AT_EPOCH   = 93166
BSTAR          = .27292502E-3
MEAN_MOTION_DOT = .3538E-4
MEAN_MOTION_DDOT = 0

CCSDS_OMM_VERS = 2.0
CREATION_DATE  = 
ORIGINATOR     = 

OBJECT_NAME    = SL-8 R/B
OBJECT_ID      = 1990-078B
CENTER_NAME    = EARTH
REF_FRAME      = TEME
TIME_SYSTEM    = UTC
MEAN_ELEMENT_THEORY = SGP/SGP4

EPOCH          = 2026-01-25T05:03:41.095584
MEAN_MOTION    = 14.87537831
ECCENTRICITY   = .03681481
INCLINATION    = 82.9048
RA_OF_ASC_NODE = 290.3623
ARG_OF_PERICENTER = 159.6610
MEAN_ANOMALY   = 201.9727

EPHEMERIS_TYPE = 0
CLASSIFICATION_TYPE = U
NORAD_CAT_ID   = 20775
ELEMENT_SET_NO = 999
REV_AT_EPOCH   = 80283
BSTAR          = .73399878E-3
MEAN_MOTION_DOT = .24535E-3
MEAN_MOTION_DDOT = 0

CCSDS_OMM_VERS = 2.0
CREATION_DATE  = 
ORIGINATOR     = 

OBJECT_NAME    = SL-8 R/B
OBJECT_ID      = 1991-006B
CENTER_NAME    = EARTH
REF_FRAME      = TEME
TIME_SYSTEM    = UTC
MEAN_ELEMENT_THEORY = SGP/SGP4

EPOCH          = 2026-01-25T05:02:47.537952
MEAN_MOTION    = 13.77491994
ECCENTRICITY   = .00230066
INCLINATION    = 82.9409
RA_OF_ASC_NODE = 202.3756
ARG_OF_PERICENTER = 154.2289
MEAN_ANOMALY   = 19.3641

EPHEMERIS_TYPE = 0
CLASSIFICATION_TYPE = U
NORAD_CAT_ID   = 21088
ELEMENT_SET_NO = 999
REV_AT_EPOCH   = 75808
BSTAR          = .11596905E-4
MEAN_MOTION_DOT = .27E-6
MEAN_MOTION_DDOT = 0

CCSDS_OMM_VERS = 2.0
CREATION_DATE  = 
ORIGINATOR     = 

OBJECT_NAME    = OKEAN-3
OBJECT_ID      = 1991-039A
CENTER_NAME    = EARTH
REF_FRAME      = TEME
TIME_SYSTEM    = UTC
MEAN_ELEMENT_THEORY = SGP/SGP4

EPOCH          = 2026-01-25T01:16:02.218944
MEAN_MOTION    = 15.04437004
ECCENTRICITY   = .00158843
INCLINATION    = 82.5164
RA_OF_ASC_NODE = 19.1057
ARG_OF_PERICENTER = 115.3432
MEAN_ANOMALY   = 244.9441

EPHEMERIS_TYPE = 0
CLASSIFICATION_TYPE = U
NORAD_CAT_ID   = 21397
ELEMENT_SET_NO = 999
REV_AT_EPOCH   = 85847
BSTAR          = .41155645E-3
MEAN_MOTION_DOT = .5794E-4
MEAN_MOTION_DDOT = 0

CCSDS_OMM_VERS = 2.0
CREATION_DATE  = 
ORIGINATOR     = 

OBJECT_NAME    = COSMOS 2151
OBJECT_ID      = 1991-042A
CENTER_NAME    = EARTH
REF_FRAME      = TEME
TIME_SYSTEM    = UTC
MEAN_ELEMENT_THEORY = SGP/SGP4

EPOCH          = 2026-01-25T07:45:34.523136
MEAN_MOTION    = 14.99914239
ECCENTRICITY   = .00120975
INCLINATION    = 82.4976
RA_OF_ASC_NODE = 125.5004
ARG_OF_PERICENTER = 199.4468
MEAN_ANOMALY   = 160.6296

EPHEMERIS_TYPE = 0
CLASSIFICATION_TYPE = U
NORAD_CAT_ID   = 21422
ELEMENT_SET_NO = 999
REV_AT_EPOCH   = 85669
BSTAR          = .25233562E-3
MEAN_MOTION_DOT = .316E-4
MEAN_MOTION_DDOT = 0

