DELTA 2 R/B(1)          
1 20453U 90008B   26024.59228953  .00067819  00000+0  94977-3 0  9997
2 20453  35.6054 102.9148 0100403 210.3563 149.1329 15.49832570919273
COSMOS 2058             
1 20465U 90010A   26025.14285812  .00005701  00000+0  34010-3 0  9996
2 20465  82.4651  90.3269 0011501 119.2697 240.9685 15.10915063935661
SL-14 R/B               
1 20466U 90010B   26025.04840046  .00000895  00000+0  10548-3 0  9991
2 20466  82.5045 308.3776 0021417  84.0479 276.3177 14.83524394922015
SL-14 R/B               
1 20511U 90018B   26025.15911680  .00000693  00000+0  84182-4 0  9997
2 20511  82.5200 263.7859 0015132 232.4596 127.5244 14.82098956916138
HST                     
1 20580U 90037B   26025.01917315  .00011649  00000+0  39685-3 0  9990
2 20580  28.4682 337.7521 0001713 353.5468   6.5105 15.28738228766621
SL-16 R/B               
1 20625U 90046B   26025.29236269 -.00000192  00000+0 -74271-4 0  9996
2 20625  70.9993  29.0538 0014052 359.8552   0.2564 14.15007352842256
COSMOS 2084             
1 20663U 90055A   26024.68484457  .00004790  00000+0  34460-3 0  9995
2 20663  62.7903 125.6307 0024348 181.3149 178.7892 15.05344312929693
SL-6 R/B(2)             
1 20666U 90055D   26025.27326011  .00003538  00000+0  27293-3 0  9990
2 20666  62.7841  41.4667 0018583 333.5118  26.5029 15.03333802931664
SL-8 R/B                
1 20775U 90078B   26025.21089231  .00024535  00000+0  73400-3 0  9991
2 20775  82.9048 290.3623 0368148 159.6610 201.9727 14.87537831802833
SL-8 R/B                
1 21088U 91006B   26025.21027243  .00000027  00000+0  11597-4 0  9996
2 21088  82.9409 202.3756 0023006 154.2289  19.3641 13.77491994758086
OKEAN-3                 
1 21397U 91039A   26025.05280346  .00005794  00000+0  41156-3 0  9991
2 21397  82.5164  19.1057 0015884 115.3432 244.9441 15.04437004858476
COSMOS 2151             
1 21422U 91042A   26025.32331624  .00003160  00000+0  25234-3 0  9994
2 21422  82.4976 125.5004 0012097 199.4468 160.6296 14.99914239856691
